{
    "links": {
        "self": "http://www.neowsapp.com/rest/v1/neo/3943333?api_key=iIulBulltgU6a56xZRHN4H3l9WmuAYTsLGpBGhQ2"
    },
    "id": "3943333",
    "neo_reference_id": "3943333",
    "name": "(2019 YH1)",
    "designation": "2019 YH1",
    "nasa_jpl_url": "http://ssd.jpl.nasa.gov/sbdb.cgi?sstr=3943333",
    "absolute_magnitude_h": 26.1,
    "estimated_diameter": {
        "kilometers": {
            "estimated_diameter_min": 0.0160160338,
            "estimated_diameter_max": 0.0358129403
        },
        "meters": {
            "estimated_diameter_min": 16.0160337979,
            "estimated_diameter_max": 35.8129403019
        },
        "miles": {
            "estimated_diameter_min": 0.0099518989,
            "estimated_diameter_max": 0.0222531225
        },
        "feet": {
            "estimated_diameter_min": 52.5460443254,
            "estimated_diameter_max": 117.4965270602
        }
    },
    "is_potentially_hazardous_asteroid": false,
    "close_approach_data": [
        {
            "close_approach_date": "2019-12-18",
            "close_approach_date_full": "2019-Dec-18 23:28",
            "epoch_date_close_approach": 1576711680000,
            "relative_velocity": {
                "kilometers_per_second": "9.8106091267",
                "kilometers_per_hour": "35318.1928562067",
                "miles_per_hour": "21945.3515555691"
            },
            "miss_distance": {
                "astronomical": "0.0068482418",
                "lunar": "2.6639660602",
                "kilometers": "1024482.386524966",
                "miles": "636583.8362018908"
            },
            "orbiting_body": "Earth"
        },
        {
            "close_approach_date": "2019-12-19",
            "close_approach_date_full": "2019-Dec-19 03:29",
            "epoch_date_close_approach": 1576726140000,
            "relative_velocity": {
                "kilometers_per_second": "10.6099167622",
                "kilometers_per_hour": "38195.7003438516",
                "miles_per_hour": "23733.3228053227"
            },
            "miss_distance": {
                "astronomical": "0.0073999231",
                "lunar": "2.8785700859",
                "kilometers": "1107012.733923797",
                "miles": "687865.8160985186"
            },
            "orbiting_body": "Moon"
        },
        {
            "close_approach_date": "2022-09-06",
            "close_approach_date_full": "2022-Sep-06 08:45",
            "epoch_date_close_approach": 1662453900000,
            "relative_velocity": {
                "kilometers_per_second": "22.901135319",
                "kilometers_per_hour": "82444.0871485786",
                "miles_per_hour": "51227.5495951821"
            },
            "miss_distance": {
                "astronomical": "0.4593223045",
                "lunar": "178.6763764505",
                "kilometers": "68713638.396691415",
                "miles": "42696675.028574927"
            },
            "orbiting_body": "Earth"
        }
    ],
    "orbital_data": {
        "orbit_id": "5",
        "orbit_determination_date": "2020-08-16 05:55:18",
        "first_observation_date": "2019-12-20",
        "last_observation_date": "2020-01-02",
        "data_arc_in_days": 13,
        "observations_used": 153,
        "orbit_uncertainty": "7",
        "minimum_orbit_intersection": ".00679026",
        "jupiter_tisserand_invariant": "3.615",
        "epoch_osculation": "2459000.5",
        "eccentricity": ".5377234375152801",
        "semi_major_axis": "2.027068146207559",
        "inclination": "5.379622596866747",
        "ascending_node_longitude": "269.8568748654292",
        "orbital_period": "1054.146449942626",
        "perihelion_distance": ".9370660945511042",
        "perihelion_argument": "145.1352198942928",
        "aphelion_distance": "3.117070197864015",
        "perihelion_time": "2458812.335313096575",
        "mean_anomaly": "64.25984481465539",
        "mean_motion": ".3415085257077835",
        "equinox": "J2000",
        "orbit_class": {
            "orbit_class_type": "APO",
            "orbit_class_description": "Near-Earth asteroid orbits which cross the Earth’s orbit similar to that of 1862 Apollo",
            "orbit_class_range": "a (semi-major axis) > 1.0 AU; q (perihelion) < 1.017 AU"
        }
    },
    "is_sentry_object": false
}